#aV2010  3 19  0  0   .00000000      96 DD+AD WGS84 FIT  NGA
## 1575 432000.00000000   900.00000000 55274  .0000000000000
+   31     1  2  3  4  5  6  7  8  9 10 11 12 13 14 15 16 17
+         18 19 20 21 22 23 24 26 27 28 29 30 31 32  0  0  0
+          0  0  0  0  0  0  0  0  0  0  0  0  0  0  0  0  0
+          0  0  0  0  0  0  0  0  0  0  0  0  0  0  0  0  0
+          0  0  0  0  0  0  0  0  0  0  0  0  0  0  0  0  0
++         0  0  0  0  0  0  0  0  0  0  0  0  0  0  0  0  0
++         0  0  0  0  0  0  0  0  0  0  0  0  0  0  0  0  0
++         0  0  0  0  0  0  0  0  0  0  0  0  0  0  0  0  0
++         0  0  0  0  0  0  0  0  0  0  0  0  0  0  0  0  0
++         0  0  0  0  0  0  0  0  0  0  0  0  0  0  0  0  0
%c cc cc ccc ccc cccc cccc cccc cccc ccccc ccccc ccccc ccccc
%c cc cc ccc ccc cccc cccc cccc cccc ccccc ccccc ccccc ccccc
%f  0.0000000  0.000000000  0.00000000000  0.000000000000000
%f  0.0000000  0.000000000  0.00000000000  0.000000000000000
%i    0    0    0    0      0      0      0      0         0
%i    0    0    0    0      0      0      0      0         0
/*      NGA, ST. LOUIS,MO.                                  
/*   EPHEMERIS COMPUTED FROM  3 DAYS OF DATA                
/* CCCCCCCCCCCCCCCCCCCCCCCCCCCCCCCCCCCCCCCCCCCCCCCCCCCCCCCCC
/* CCCCCCCCCCCCCCCCCCCCCCCCCCCCCCCCCCCCCCCCCCCCCCCCCCCCCCCCC
*  2010  3 19  3 30   .00000000                                                 
P  1  21774.890263  15241.223787   1804.427506   -100.050157                    
V  1    318.344058   3532.202444 -31609.498769      -.040388                    
P  2 -21170.017492  14166.734288   6601.542795    237.736170                    
V  2  -9328.040734    -52.022514 -30042.760867       .038868                    
P  3  10535.430272 -19868.358722  13503.489480    530.050633                    
V  3   2955.347296  18025.692036  23941.873165       .052192                    
P  4 -25414.880972   4566.903102  -7149.665221     39.969230                    
V  4   7059.161454  -6025.221486 -29286.234290       .088077                    
P  5 -11407.710896  10353.537898  21620.089094     -3.300867                    
V  5 -21574.781692 -17060.315021  -3126.965788       .011261                    
P  6  13518.599265 -16188.266232  16249.953069    685.936401                    
V  6    554.979748  20563.264673  20378.050375      -.075407                    
P  7 -13108.804571 -10073.098678  20814.828299      1.490494                    
V  7  24215.063929 -10489.022436  10016.042870      -.004884                    
P  8 -22893.170899  -1978.342863  13753.864877      4.210475                    
V  8  16053.788333  -6363.308859  25266.052642       .004240                    
P  9  -7832.628755  17428.609127 -19095.761071    112.332418                    
V  9 -21316.299523   8257.339662  16912.289882       .023076                    
P 10 -17781.308931   3217.127219  19392.568954    -38.189076                    
V 10 -18534.582782 -16728.454740 -13743.484955      -.009948                    
P 11    596.932809 -18990.636841 -18695.031138    -51.401564                    
V 11  20646.970238 -11738.564351  13128.232224      -.021860                    
P 12   6189.491829  19642.689610 -16798.401758   -137.062476                    
V 12 -17685.456567 -12075.293490 -20423.333227       .045877                    
P 13  -6104.647612 -20477.598400  15628.509888    305.966907                    
V 13   5396.311828 -19339.918420 -23047.888294      -.002305                    
P 14  14376.104896   2451.418702 -22062.110295     23.473751                    
V 14  -5140.832662  27797.723099   -377.115912       .040960                    
P 15  -7159.507938  24874.452370   5698.054242   -296.723634                    
V 15  -2095.589314  -7558.449622  30569.481972       .039912                    
P 16  16635.989945  -4342.333461  20366.712017    -52.552058                    
V 16  19285.845966  16924.599102 -11910.278856      -.039369                    
P 17 -15036.454387  -2091.287774 -21694.307909    138.036919                    
V 17   4339.139146 -27442.888070   -567.094626       .028976                    
P 18  19557.356987  18166.403303   2234.444258     56.116108                    
V 18  -3959.747822    871.649416  30828.950791       .025457                    
P 19   8357.111113 -24720.103720   4040.517988    -22.338226                    
V 19   1930.651797   5681.276323  31329.189383      -.024208                    
P 20  -9374.354815 -20208.613622 -14642.537108     59.277968                    
V 20  16320.525023   8852.993490 -22827.285391      -.006917                    
P 21  17796.312874   7901.502145  18637.110608    -47.626316                    
V 21 -20832.109543   9626.914132  15451.371523      -.025109                    
P 22  22773.780160  10072.001477  -9197.525789    176.575784                    
V 22   7110.804852  10097.058908  28093.904454      -.007089                    
P 23  -1008.877434 -25454.448586   6903.910707    376.961527                    
V 23   3973.614380  -8376.411752 -30478.589945      -.011276                    
P 24  14914.834355   9765.307264  19715.330693    271.677529                    
V 24 -23102.950743   9484.438157  13080.208717       .031716                    
P 26   6844.293106  19928.199138 -16399.030748    -29.440921                    
V 26  -5398.062912  19271.381086  22323.515616      -.040995                    
P 27 -10732.221647  17219.122768 -16382.203521    135.360472                    
V 27 -20796.651231   7784.343377  21066.638490       .033270                    
P 28 -22374.424365 -12661.566629  -6779.607765    -20.259046                    
V 28  -5557.791489  -7629.487346  30180.596487       .007224                    
P 29   6094.517325  21884.993013  13886.790046    106.092544                    
V 29  -5049.269810  16849.537018 -24467.427951       .027674                    
P 30  15680.547571  19441.370403  -9505.740744    225.795974                    
V 30 -10870.894809  -4585.807004 -28427.107833       .034229                    
P 31  25309.556750  -6788.081257  -4657.401465    -46.709983                    
V 31  -4895.704670   4295.800933 -31257.553067       .018632                    
P 32    773.523407 -17849.685028 -19410.642085     71.256920                    
V 32  19322.661137  16378.588282 -13719.636033      -.085774                    
EOF
